[{"OBJECT_NAME":"STARLINK-4004","OBJECT_ID":"2022-053A","EPOCH":"2026-03-09T22:58:17.419584","MEAN_MOTION":15.08840462,"ECCENTRICITY":0.00014121,"INCLINATION":53.2174,"RA_OF_ASC_NODE":152.9314,"ARG_OF_PERICENTER":80.9128,"MEAN_ANOMALY":279.2024,"EPHEMERIS_TYPE":0,"CLASSIFICATION_TYPE":"U","NORAD_CAT_ID":52656,"ELEMENT_SET_NO":999,"REV_AT_EPOCH":21115,"BSTAR":4.1718227e-5,"MEAN_MOTION_DOT":3.76e-6,"MEAN_MOTION_DDOT":0},{"OBJECT_NAME":"PEGASUS DEB","OBJECT_ID":"1994-029AFJ","EPOCH":"2026-03-03T19:03:50.475744","MEAN_MOTION":14.72508431,"ECCENTRICITY":0.0165055,"INCLINATION":81.9829,"RA_OF_ASC_NODE":93.0554,"ARG_OF_PERICENTER":318.1487,"MEAN_ANOMALY":40.7194,"EPHEMERIS_TYPE":0,"CLASSIFICATION_TYPE":"U","NORAD_CAT_ID":39323,"ELEMENT_SET_NO":999,"REV_AT_EPOCH":72598,"BSTAR":0.0010497,"MEAN_MOTION_DOT":8.298e-5,"MEAN_MOTION_DDOT":0}]
